IRIDIUM 39              
1 25042U 97069D   25083.95680065  .00002603  00000+0  67998-3 0  9993
2 25042  86.3874 247.2301 0016475 223.3535 136.6374 14.49032616436768
IRIDIUM 38              
1 25043U 97069E   25084.53165246  .00001464  00000+0  47786-3 0  9995
2 25043  86.3897 268.3606 0003131  53.0460 307.1024 14.37995047434191
IRIDIUM 42              
1 25077U 97077A   25084.50500600  .00001338  00000+0  45195-3 0  9997
2 25077  86.3901 274.4451 0002534  75.2877 284.8600 14.36239773429184
IRIDIUM 44              
1 25078U 97077B   25084.47681257  .00001663  00000+0  52099-3 0  9994
2 25078  86.3908 256.5826 0001153  28.5742 331.5520 14.40125928431687
IRIDIUM 45              
1 25104U 97082A   25084.01936431  .00039531  00000+0  15698-2 0  9995
2 25104  86.3543  88.6590 0121808 286.5782  72.2111 15.18477477439503
IRIDIUM 24              
1 25105U 97082B   25084.48774603  .00001312  00000+0  39421-3 0  9995
2 25105  86.3871 115.8167 0011352   6.6879 353.4471 14.41969273431400
IRIDIUM 51              
1 25262U 98018A   25083.55737002  .00052724  00000+0  14263-2 0  9997
2 25262  86.3819  97.5264 0098039 212.0837 147.4424 15.32677997434035
IRIDIUM 57              
1 25273U 98019B   25084.54544898  .00001227  00000+0  41766-3 0  9990
2 25273  86.4039 180.2764 0002155  92.8792 267.2651 14.35810081412994
